XM-5                    
1 37185U 10053A   26061.70792781 -.00000040  00000+0  00000+0 0  9992
2 37185   0.0697 274.8669 0003422 255.2452 130.0124  1.00271101 56416
BSAT-3B                 
1 37207U 10056B   26061.82104889 -.00000367  00000+0  00000+0 0  9991
2 37207   0.0886 249.9449 0002138  29.3989 286.6619  1.00271383 51030
BEIDOU-2 G4             
1 37210U 10057A   26061.82892068 -.00000127  00000+0  00000+0 0  9993
2 37210   3.3826  69.5548 0009183 210.1156 339.3432  1.00271977 56227
SKYTERRA 1              
1 37218U 10061A   26061.56801257 -.00000132  00000+0  00000+0 0  9993
2 37218   4.8984  50.9142 0001607 286.3749 286.2007  1.00271346 56123
HYLAS 1                 
1 37237U 10065A   26061.73020126  .00000023  00000+0  00000+0 0  9993
2 37237   5.3734  74.3270 0002941 328.3238  17.7742  1.00649619  5812
INTELSAT 17 (IS-17)     
1 37238U 10065B   26061.84072336 -.00000017  00000+0  00000+0 0  9990
2 37238   0.0258 205.3879 0002421 145.3040 178.5633  1.00269896 52180
EUTELSAT KA-SAT 9A      
1 37258U 10069A   26061.73254126  .00000044  00000+0  00000+0 0  9992
2 37258   0.0562 357.2159 0002517 137.6079 298.3840  1.00269180 42939
HISPASAT 30W-5          
1 37264U 10070A   26061.72482790 -.00000233  00000+0  00000+0 0  9991
2 37264   0.0304 119.2516 0003299 236.0064  36.1548  1.00270189 52114
KOREASAT 6              
1 37265U 10070B   26061.82892068 -.00000128  00000+0  00000+0 0  9999
2 37265   0.0129 116.1744 0002326 215.9890 286.7196  1.00272110 55708
ELEKTRO-L 1 (GOMS 2)    
1 37344U 11001A   26061.36704479 -.00000279  00000+0  00000+0 0  9996
2 37344   9.4446  55.5772 0003146   9.8914 157.7204  1.00174861 55415
BEIDOU-2 IGSO-3         
1 37384U 11013A   26058.90884667 -.00000154  00000+0  00000+0 0  9999
2 37384  62.2642  41.1818 0035029 190.8154 358.7681  1.00294022 54567
INTELSAT 28 (IS-28)     
1 37392U 11016A   26061.72448123 -.00000241  00000+0  00000+0 0  9995
2 37392   1.5311  84.0054 0004519 254.3607  51.2211  1.00270518 52210
YAHSAT 1A               
1 37393U 11016B   26061.82267102  .00000085  00000+0  00000+0 0  9998
2 37393   0.0118 136.5097 0003377 214.5380 158.1934  1.00271634 41348
SBIRS GEO-1 (USA 230)   
1 37481U 11019A   26061.83305949  .00000086  00000+0  00000+0 0  9993
2 37481   4.3021  53.0914 0002272 288.6178 170.5974  1.00272432 54339
TELSTAR 14R             
1 37602U 11021A   26061.50422560 -.00000297  00000+0  00000+0 0  9999
2 37602   0.0408 275.3733 0002455  71.8133 291.5930  1.00273144 54764
GSAT-8                  
1 37605U 11022A   26061.82267102  .00000069  00000+0  00000+0 0  9993
2 37605   1.8562  83.1786 0007489 214.1713 214.4485  1.00271553 52150
ST-2                    
1 37606U 11022B   26061.81192084 -.00000227  00000+0  00000+0 0  9996
2 37606   0.0140 116.9518 0001859 238.4545 185.4710  1.00270402 54218
